LEO EXPRESS 1           
1 58301U 23174AX  26068.76789509  .00017303  00000+0  49741-3 0  9998
2 58301  97.5222 152.4092 0078735 115.9210 245.0174 15.32756831129655
STARLINK-30887          
1 58394U 23178W   26068.22234539  .00000558  00000+0  30951-4 0  9991
2 58394  53.1618   3.5105 0000924  88.3390 271.7716 15.30188910129790
